FLOCK 4G-21             
1 62651U 25009AU  26068.19487675  .00013648  00000+0  49619-3 0  9998
2 62651  97.4032 151.1274 0000465 329.5782  30.5431 15.28381075 63677
STARLINK-35876          
1 67180U 25303T   26068.15033222  .00024824  00000+0  90905-3 0  9990
2 67180  43.0004 313.6750 0001780 280.7112  79.3539 15.27561943 12650
